start=new Date('2022-01-10T00:00:00.000Z').valueOf();
sats=[{"TIME_SYSTEM":"UTC","FILE":"3268241","ELEMENT_SET_NO":"999","RA_OF_ASC_NODE":"310.7389","MEAN_MOTION_DDOT":"0.0000000000000","OBJECT_NAME":"STARLINK-1083","REV_AT_EPOCH":"11100","BSTAR":"0.00012658000000","NORAD_CAT_ID":"44939","ECCENTRICITY":"0.00018150","MEAN_ELEMENT_THEORY":"SGP4","INCLINATION":"53.0548","SITE":"AFETR","LAUNCH_DATE":"2020-01-07","GP_ID":"193535338","TLE_LINE1":"1 44939U 20001AB  22009.56276343  .00001604  00000-0  12658-3 0  9997","PERIAPSIS":"545.942","EPHEMERIS_TYPE":"0","MEAN_MOTION":"15.06404681","SEMIMAJOR_AXIS":"6925.334","REF_FRAME":"TEME","CLASSIFICATION_TYPE":"U","TLE_LINE2":"2 44939  53.0548 310.7389 0001815  61.1019 299.0152 15.06404681111006","COUNTRY_CODE":"US","DECAY_DATE":null,"MEAN_MOTION_DOT":"0.00001604","OBJECT_ID":"2020-001AB","CENTER_NAME":"EARTH","RCS_SIZE":"LARGE","PERIOD":"95.592","ARG_OF_PERICENTER":"61.1019","EPOCH":"2022-01-09T13:30:22.760352","MEAN_ANOMALY":"299.0152","OBJECT_TYPE":"PAYLOAD","APOAPSIS":"548.456"},{"ECCENTRICITY":"0.00018570","INCLINATION":"53.0552","SITE":"AFETR","MEAN_ELEMENT_THEORY":"SGP4","LAUNCH_DATE":"2020-01-07","GP_ID":"193525264","TLE_LINE1":"1 44940U 20001AC  22009.10939668 -.00000366  00000-0 -56620-5 0  9990","PERIAPSIS":"545.941","MEAN_MOTION":"15.06395627","EPHEMERIS_TYPE":"0","FILE":"3268062","TIME_SYSTEM":"UTC","ELEMENT_SET_NO":"999","MEAN_MOTION_DDOT":"0.0000000000000","RA_OF_ASC_NODE":"312.7683","OBJECT_NAME":"STARLINK-1091","REV_AT_EPOCH":"11093","NORAD_CAT_ID":"44940","BSTAR":"-0.00000566200000","MEAN_MOTION_DOT":"-0.00000366","DECAY_DATE":null,"OBJECT_ID":"2020-001AC","RCS_SIZE":"LARGE","CENTER_NAME":"EARTH","PERIOD":"95.592","ARG_OF_PERICENTER":"58.6656","EPOCH":"2022-01-09T02:37:31.873152","MEAN_ANOMALY":"301.4515","APOAPSIS":"548.513","OBJECT_TYPE":"PAYLOAD","REF_FRAME":"TEME","SEMIMAJOR_AXIS":"6925.362","CLASSIFICATION_TYPE":"U","TLE_LINE2":"2 44940  53.0552 312.7683 0001857  58.6656 301.4515 15.06395627110937","COUNTRY_CODE":"US"},{"TLE_LINE2":"2 44941  53.0554 310.8835 0002176  63.3808 296.7403 15.06403878111004","COUNTRY_CODE":"US","REF_FRAME":"TEME","SEMIMAJOR_AXIS":"6925.337","CLASSIFICATION_TYPE":"U","ARG_OF_PERICENTER":"63.3808","EPOCH":"2022-01-09T12:42:36.624384","MEAN_ANOMALY":"296.7403","APOAPSIS":"548.709","OBJECT_TYPE":"PAYLOAD","MEAN_MOTION_DOT":"0.00000367","DECAY_DATE":null,"OBJECT_ID":"2020-001AD","RCS_SIZE":"LARGE","CENTER_NAME":"EARTH","PERIOD":"95.592","REV_AT_EPOCH":"11100","NORAD_CAT_ID":"44941","BSTAR":"0.00004351800000","FILE":"3268062","ELEMENT_SET_NO":"999","TIME_SYSTEM":"UTC","RA_OF_ASC_NODE":"310.8835","MEAN_MOTION_DDOT":"0.0000000000000","OBJECT_NAME":"STARLINK-1094","PERIAPSIS":"545.695","TLE_LINE1":"1 44941U 20001AD  22009.52959056  .00000367  00000-0  43518-4 0  9990","MEAN_MOTION":"15.06403878","EPHEMERIS_TYPE":"0","ECCENTRICITY":"0.00021760","SITE":"AFETR","INCLINATION":"53.0554","MEAN_ELEMENT_THEORY":"SGP4","LAUNCH_DATE":"2020-01-07","GP_ID":"193525514"},{"NORAD_CAT_ID":"44942","BSTAR":"0.00011683000000","REV_AT_EPOCH":"11096","OBJECT_NAME":"STARLINK-1096","RA_OF_ASC_NODE":"312.1427","MEAN_MOTION_DDOT":"0.0000000000000","ELEMENT_SET_NO":"999","FILE":"3268062","TIME_SYSTEM":"UTC","MEAN_MOTION":"15.06397087","EPHEMERIS_TYPE":"0","PERIAPSIS":"545.891","TLE_LINE1":"1 44942U 20001AE  22009.24946693  .00001459  00000-0  11683-3 0  9993","GP_ID":"193526266","LAUNCH_DATE":"2020-01-07","INCLINATION":"53.0547","SITE":"AFETR","MEAN_ELEMENT_THEORY":"SGP4","ECCENTRICITY":"0.00019220","COUNTRY_CODE":"US","TLE_LINE2":"2 44942  53.0547 312.1427 0001922  61.2874 298.8308 15.06397087110962","CLASSIFICATION_TYPE":"U","REF_FRAME":"TEME","SEMIMAJOR_AXIS":"6925.357","APOAPSIS":"548.554","OBJECT_TYPE":"PAYLOAD","MEAN_ANOMALY":"298.8308","EPOCH":"2022-01-09T05:59:13.942752","ARG_OF_PERICENTER":"61.2874","CENTER_NAME":"EARTH","RCS_SIZE":"LARGE","PERIOD":"95.592","OBJECT_ID":"2020-001AE","DECAY_DATE":null,"MEAN_MOTION_DOT":"0.00001459"},{"CLASSIFICATION_TYPE":"U","REF_FRAME":"TEME","SEMIMAJOR_AXIS":"6925.348","COUNTRY_CODE":"US","TLE_LINE2":"2 44943  53.0553 310.7558 0001897  62.5132 297.6050 15.06400155111009","CENTER_NAME":"EARTH","RCS_SIZE":"LARGE","PERIOD":"95.592","OBJECT_ID":"2020-001AF","MEAN_MOTION_DOT":"0.00001621","DECAY_DATE":null,"APOAPSIS":"548.527","OBJECT_TYPE":"PAYLOAD","MEAN_ANOMALY":"297.6050","EPOCH":"2022-01-09T13:25:04.754784","ARG_OF_PERICENTER":"62.5132","OBJECT_NAME":"STARLINK-1100","MEAN_MOTION_DDOT":"0.0000000000000","RA_OF_ASC_NODE":"310.7558","FILE":"3268062","ELEMENT_SET_NO":"999","TIME_SYSTEM":"UTC","NORAD_CAT_ID":"44943","BSTAR":"0.00012773000000","REV_AT_EPOCH":"11100","GP_ID":"193526516","LAUNCH_DATE":"2020-01-07","SITE":"AFETR","INCLINATION":"53.0553","MEAN_ELEMENT_THEORY":"SGP4","ECCENTRICITY":"0.00018970","MEAN_MOTION":"15.06400155","EPHEMERIS_TYPE":"0","TLE_LINE1":"1 44943U 20001AF  22009.55908281  .00001621  00000-0  12773-3 0  9991","PERIAPSIS":"545.899"},{"SITE":"AFETR","INCLINATION":"53.0553","MEAN_ELEMENT_THEORY":"SGP4","ECCENTRICITY":"0.00020130","GP_ID":"193524765","LAUNCH_DATE":"2020-01-07","MEAN_MOTION":"15.06406560","EPHEMERIS_TYPE":"0","TLE_LINE1":"1 44944U 20001AG  22009.54064663  .00002598  00000-0  19322-3 0  9999","PERIAPSIS":"545.799","TIME_SYSTEM":"UTC","FILE":"3268062","ELEMENT_SET_NO":"999","OBJECT_NAME":"STARLINK-1108","MEAN_MOTION_DDOT":"0.0000000000000","RA_OF_ASC_NODE":"310.8337","REV_AT_EPOCH":"11100","NORAD_CAT_ID":"44944","BSTAR":"0.00019322000000","DECAY_DATE":null,"MEAN_MOTION_DOT":"0.00002598","CENTER_NAME":"EARTH","RCS_SIZE":"LARGE","PERIOD":"95.592","OBJECT_ID":"2020-001AG","EPOCH":"2022-01-09T12:58:31.868832","ARG_OF_PERICENTER":"56.5142","APOAPSIS":"548.588","OBJECT_TYPE":"PAYLOAD","MEAN_ANOMALY":"303.6040","REF_FRAME":"TEME","SEMIMAJOR_AXIS":"6925.328","CLASSIFICATION_TYPE":"U","TLE_LINE2":"2 44944  53.0553 310.8337 0002013  56.5142 303.6040 15.06406560111004","COUNTRY_CODE":"US"},{"NORAD_CAT_ID":"44945","BSTAR":"0.00001793500000","REV_AT_EPOCH":"11100","MEAN_MOTION_DDOT":"0.0000000000000","RA_OF_ASC_NODE":"310.6973","OBJECT_NAME":"STARLINK-1109","ELEMENT_SET_NO":"999","FILE":"3268062","TIME_SYSTEM":"UTC","TLE_LINE1":"1 44945U 20001AH  22009.57013815 -.00000015  00000-0  17935-4 0  9998","PERIAPSIS":"545.890","MEAN_MOTION":"15.06397560","EPHEMERIS_TYPE":"0","LAUNCH_DATE":"2020-01-07","GP_ID":"193525015","ECCENTRICITY":"0.00019220","SITE":"AFETR","INCLINATION":"53.0551","MEAN_ELEMENT_THEORY":"SGP4","COUNTRY_CODE":"US","TLE_LINE2":"2 44945  53.0551 310.6973 0001922  60.0610 300.0570 15.06397560111003","CLASSIFICATION_TYPE":"U","REF_FRAME":"TEME","SEMIMAJOR_AXIS":"6925.356","MEAN_ANOMALY":"300.0570","APOAPSIS":"548.552","OBJECT_TYPE":"PAYLOAD","ARG_OF_PERICENTER":"60.0610","EPOCH":"2022-01-09T13:40:59.936160","OBJECT_ID":"2020-001AH","CENTER_NAME":"EARTH","RCS_SIZE":"LARGE","PERIOD":"95.592","DECAY_DATE":null,"MEAN_MOTION_DOT":"-0.00000015"},{"OBJECT_ID":"2020-001AJ","PERIOD":"95.407","RCS_SIZE":"LARGE","CENTER_NAME":"EARTH","DECAY_DATE":null,"MEAN_MOTION_DOT":"0.00006039","MEAN_ANOMALY":"286.0669","APOAPSIS":"540.013","OBJECT_TYPE":"PAYLOAD","ARG_OF_PERICENTER":"74.0601","EPOCH":"2022-01-09T12:33:27.503136","CLASSIFICATION_TYPE":"U","REF_FRAME":"TEME","SEMIMAJOR_AXIS":"6916.388","COUNTRY_CODE":"US","TLE_LINE2":"2 44946  53.0043 305.4280 0002545  74.0601 286.0669 15.09328313111050","LAUNCH_DATE":"2020-01-07","GP_ID":"193525767","ECCENTRICITY":"0.00025450","SITE":"AFETR","INCLINATION":"53.0043","MEAN_ELEMENT_THEORY":"SGP4","TLE_LINE1":"1 44946U 20001AJ  22009.52323499  .00006039  00000-0  39197-3 0  9990","PERIAPSIS":"536.493","MEAN_MOTION":"15.09328313","EPHEMERIS_TYPE":"0","RA_OF_ASC_NODE":"305.4280","MEAN_MOTION_DDOT":"0.0000000000000","OBJECT_NAME":"STARLINK-1110","FILE":"3268062","TIME_SYSTEM":"UTC","ELEMENT_SET_NO":"999","NORAD_CAT_ID":"44946","BSTAR":"0.00039197000000","REV_AT_EPOCH":"11105"},{"FILE":"3268062","ELEMENT_SET_NO":"999","TIME_SYSTEM":"UTC","OBJECT_NAME":"STARLINK-1116","MEAN_MOTION_DDOT":"0.0000000000000","RA_OF_ASC_NODE":"310.8931","REV_AT_EPOCH":"11100","BSTAR":"0.00014275000000","NORAD_CAT_ID":"44947","MEAN_ELEMENT_THEORY":"SGP4","INCLINATION":"53.0549","SITE":"AFETR","ECCENTRICITY":"0.00017340","GP_ID":"193526017","LAUNCH_DATE":"2020-01-07","EPHEMERIS_TYPE":"0","MEAN_MOTION":"15.06405578","TLE_LINE1":"1 44947U 20001AK  22009.52590313  .00001846  00000-0  14275-3 0  9993","PERIAPSIS":"545.996","SEMIMAJOR_AXIS":"6925.331","REF_FRAME":"TEME","CLASSIFICATION_TYPE":"U","TLE_LINE2":"2 44947  53.0549 310.8931 0001734  65.7182 294.3988 15.06405578111002","COUNTRY_CODE":"US","DECAY_DATE":null,"MEAN_MOTION_DOT":"0.00001846","RCS_SIZE":"LARGE","PERIOD":"95.592","CENTER_NAME":"EARTH","OBJECT_ID":"2020-001AK","EPOCH":"2022-01-09T12:37:18.030432","ARG_OF_PERICENTER":"65.7182","OBJECT_TYPE":"PAYLOAD","APOAPSIS":"548.397","MEAN_ANOMALY":"294.3988"},{"REF_FRAME":"TEME","SEMIMAJOR_AXIS":"6925.323","CLASSIFICATION_TYPE":"U","TLE_LINE2":"2 44949  53.0536 310.7945 0001955  64.8725 295.2466 15.06408431111004","COUNTRY_CODE":"US","MEAN_MOTION_DOT":"0.00004387","DECAY_DATE":null,"OBJECT_ID":"2020-001AM","RCS_SIZE":"LARGE","CENTER_NAME":"EARTH","PERIOD":"95.592","ARG_OF_PERICENTER":"64.8725","EPOCH":"2022-01-09T13:14:27.693888","MEAN_ANOMALY":"295.2466","APOAPSIS":"548.542","OBJECT_TYPE":"PAYLOAD","TIME_SYSTEM":"UTC","FILE":"3268295","ELEMENT_SET_NO":"999","MEAN_MOTION_DDOT":"0.0000000000000","RA_OF_ASC_NODE":"310.7945","OBJECT_NAME":"STARLINK-1122","REV_AT_EPOCH":"11100","NORAD_CAT_ID":"44949","BSTAR":"0.00031315000000","ECCENTRICITY":"0.00019550","SITE":"AFETR","INCLINATION":"53.0536","MEAN_ELEMENT_THEORY":"SGP4","LAUNCH_DATE":"2020-01-07","GP_ID":"193536334","TLE_LINE1":"1 44949U 20001AM  22009.55170942  .00004387  00000-0  31315-3 0  9997","PERIAPSIS":"545.834","MEAN_MOTION":"15.06408431","EPHEMERIS_TYPE":"0"}];
